FENGYUN 1C DEB          
1 29795U 99025CM  17345.62948726  .00000077  00000-0  88888-4 0  9999
2 29795  98.8693 227.4718 0113928  22.3879  40.6606 13.91743505553950
